ONEWEB-0018             
1 45434U 20020L   24310.05425273  .00000583  00000+0  16081-2 0  9995
2 45434  87.8888 138.4352 0001577  79.5185 280.6121 13.11418057225426
ONEWEB-0083             
1 45435U 20020M   24310.50185480  .00000199  00000+0  52690-3 0  9999
2 45435  87.8891 138.3288 0001477  84.9897 275.1399 13.11419125225521
ONEWEB-0095             
1 45436U 20020N   24310.49349582 -.00000359  00000+0 -10481-2 0  9994
2 45436  87.8888 138.3619 0000844 110.2438 249.8781 13.11419594225520
ONEWEB-0092             
1 45437U 20020P   24310.46557178 -.00000200  00000+0 -60407-3 0  9993
2 45437  87.8887 138.3535 0001351  95.3956 264.7326 13.10867324225628
ONEWEB-0085             
1 45438U 20020Q   24310.49506809 -.00000087  00000+0 -28153-3 0  9997
2 45438  87.8890 138.3545 0001606  85.0647 275.0664 13.11420305225524
ONEWEB-0096             
1 45439U 20020R   24310.50355118  .00000279  00000+0  75174-3 0  9991
2 45439  87.8890 138.3219 0001781  85.8869 274.2462 13.11419164225518
ONEWEB-0037             
1 45440U 20020S   24309.95079754 -.00000358  00000+0 -10463-2 0  9998
2 45440  87.8881 138.4072 0001484  90.0134 270.1164 13.11414954225461
ONEWEB-0042             
1 45441U 20020T   24310.49324360 -.00000130  00000+0 -40229-3 0  9998
2 45441  87.8890 138.3361 0001570  87.2933 272.8374 13.11421448225517
